[{"OBJECT_NAME":"MERAH PUTIH 2","OBJECT_ID":"2024-035A","EPOCH":"2026-03-28T20:27:25.464384","MEAN_MOTION":1.00272416,"ECCENTRICITY":9.43e-5,"INCLINATION":0.0163,"RA_OF_ASC_NODE":204.1933,"ARG_OF_PERICENTER":186.6496,"MEAN_ANOMALY":215.221,"EPHEMERIS_TYPE":0,"CLASSIFICATION_TYPE":"U","NORAD_CAT_ID":58995,"ELEMENT_SET_NO":999,"REV_AT_EPOCH":778,"BSTAR":0,"MEAN_MOTION_DOT":-3.77e-6,"MEAN_MOTION_DDOT":0},{"OBJECT_NAME":"TJS-11","OBJECT_ID":"2024-037A","EPOCH":"2026-03-28T17:04:34.077792","MEAN_MOTION":1.00271409,"ECCENTRICITY":0.0005667,"INCLINATION":4.3071,"RA_OF_ASC_NODE":326.0927,"ARG_OF_PERICENTER":58.4793,"MEAN_ANOMALY":178.0209,"EPHEMERIS_TYPE":0,"CLASSIFICATION_TYPE":"U","NORAD_CAT_ID":59020,"ELEMENT_SET_NO":999,"REV_AT_EPOCH":777,"BSTAR":0,"MEAN_MOTION_DOT":-3.9e-6,"MEAN_MOTION_DDOT":0},{"OBJECT_NAME":"HULIANWAN GAOGUI-01 (HG-01)","OBJECT_ID":"2024-040A","EPOCH":"2026-03-27T22:40:38.806176","MEAN_MOTION":1.00274746,"ECCENTRICITY":0.0004109,"INCLINATION":0.0649,"RA_OF_ASC_NODE":321.4159,"ARG_OF_PERICENTER":45.5362,"MEAN_ANOMALY":192.2163,"EPHEMERIS_TYPE":0,"CLASSIFICATION_TYPE":"U","NORAD_CAT_ID":59069,"ELEMENT_SET_NO":999,"REV_AT_EPOCH":651,"BSTAR":0,"MEAN_MOTION_DOT":1.37e-6,"MEAN_MOTION_DDOT":0},{"OBJECT_NAME":"EUTELSAT 36D","OBJECT_ID":"2024-059A","EPOCH":"2026-03-28T20:05:25.344096","MEAN_MOTION":1.00270925,"ECCENTRICITY":2.48e-5,"INCLINATION":0.0046,"RA_OF_ASC_NODE":92.053,"ARG_OF_PERICENTER":275.6946,"MEAN_ANOMALY":155.6938,"EPHEMERIS_TYPE":0,"CLASSIFICATION_TYPE":"U","NORAD_CAT_ID":59346,"ELEMENT_SET_NO":999,"REV_AT_EPOCH":734,"BSTAR":0,"MEAN_MOTION_DOT":1.36e-6,"MEAN_MOTION_DDOT":0},{"OBJECT_NAME":"PAKSAT-MM1","OBJECT_ID":"2024-104A","EPOCH":"2026-03-28T04:41:55.904352","MEAN_MOTION":1.00271221,"ECCENTRICITY":0.0002533,"INCLINATION":0.0108,"RA_OF_ASC_NODE":195.5719,"ARG_OF_PERICENTER":165.0772,"MEAN_ANOMALY":293.6542,"EPHEMERIS_TYPE":0,"CLASSIFICATION_TYPE":"U","NORAD_CAT_ID":59915,"ELEMENT_SET_NO":999,"REV_AT_EPOCH":671,"BSTAR":0,"MEAN_MOTION_DOT":1.34e-6,"MEAN_MOTION_DDOT":0},{"OBJECT_NAME":"EKRAN 2 DEB","OBJECT_ID":"1977-092N","EPOCH":"2026-03-28T20:25:18.166944","MEAN_MOTION":1.00180032,"ECCENTRICITY":0.001193,"INCLINATION":4.3328,"RA_OF_ASC_NODE":275.0231,"ARG_OF_PERICENTER":221.2146,"MEAN_ANOMALY":101.9349,"EPHEMERIS_TYPE":0,"CLASSIFICATION_TYPE":"U","NORAD_CAT_ID":59987,"ELEMENT_SET_NO":999,"REV_AT_EPOCH":6230,"BSTAR":0,"MEAN_MOTION_DOT":-3.49e-6,"MEAN_MOTION_DDOT":0},{"OBJECT_NAME":"ASTRA 1P (SES-24)","OBJECT_ID":"2024-115A","EPOCH":"2026-03-28T20:00:40.800384","MEAN_MOTION":1.00272256,"ECCENTRICITY":0.0003768,"INCLINATION":0.063,"RA_OF_ASC_NODE":15.4133,"ARG_OF_PERICENTER":303.8595,"MEAN_ANOMALY":186.3173,"EPHEMERIS_TYPE":0,"CLASSIFICATION_TYPE":"U","NORAD_CAT_ID":60086,"ELEMENT_SET_NO":999,"REV_AT_EPOCH":639,"BSTAR":0,"MEAN_MOTION_DOT":1.0e-6,"MEAN_MOTION_DDOT":0},{"OBJECT_NAME":"GOES 19","OBJECT_ID":"2024-119A","EPOCH":"2026-03-28T14:25:37.366752","MEAN_MOTION":1.00270005,"ECCENTRICITY":8.18e-5,"INCLINATION":0.0476,"RA_OF_ASC_NODE":15.5541,"ARG_OF_PERICENTER":25.4447,"MEAN_ANOMALY":286.2025,"EPHEMERIS_TYPE":0,"CLASSIFICATION_TYPE":"U","NORAD_CAT_ID":60133,"ELEMENT_SET_NO":999,"REV_AT_EPOCH":615,"BSTAR":0,"MEAN_MOTION_DOT":-2.68e-6,"MEAN_MOTION_DDOT":0},{"OBJECT_NAME":"ZHONGXING-3A","OBJECT_ID":"2024-122A","EPOCH":"2026-03-24T12:00:37.859616","MEAN_MOTION":1.0026918,"ECCENTRICITY":0.0002305,"INCLINATION":0.0442,"RA_OF_ASC_NODE":2.7357,"ARG_OF_PERICENTER":82.4897,"MEAN_ANOMALY":18.461,"EPHEMERIS_TYPE":0,"CLASSIFICATION_TYPE":"U","NORAD_CAT_ID":60179,"ELEMENT_SET_NO":999,"REV_AT_EPOCH":646,"BSTAR":0,"MEAN_MOTION_DOT":-3.21e-6,"MEAN_MOTION_DDOT":0},{"OBJECT_NAME":"TURKSAT 6A","OBJECT_ID":"2024-127A","EPOCH":"2026-03-28T20:07:10.176672","MEAN_MOTION":1.00272636,"ECCENTRICITY":0.00015,"INCLINATION":0.0299,"RA_OF_ASC_NODE":199.4446,"ARG_OF_PERICENTER":129.2241,"MEAN_ANOMALY":201.3596,"EPHEMERIS_TYPE":0,"CLASSIFICATION_TYPE":"U","NORAD_CAT_ID":60233,"ELEMENT_SET_NO":999,"REV_AT_EPOCH":621,"BSTAR":0,"MEAN_MOTION_DOT":1.27e-6,"MEAN_MOTION_DDOT":0},{"OBJECT_NAME":"HULIANWAN GAOGUI-02 (HG-02)","OBJECT_ID":"2024-135A","EPOCH":"2026-03-25T03:39:11.922912","MEAN_MOTION":1.00265874,"ECCENTRICITY":0.00083163,"INCLINATION":0.016,"RA_OF_ASC_NODE":52.416,"ARG_OF_PERICENTER":296.025,"MEAN_ANOMALY":42.0773,"EPHEMERIS_TYPE":0,"CLASSIFICATION_TYPE":"U","NORAD_CAT_ID":60327,"ELEMENT_SET_NO":999,"REV_AT_EPOCH":665,"BSTAR":0,"MEAN_MOTION_DOT":0,"MEAN_MOTION_DDOT":0},{"OBJECT_NAME":"ZHONGXING-4A","OBJECT_ID":"2024-151A","EPOCH":"2026-03-28T20:28:55.320384","MEAN_MOTION":1.00269262,"ECCENTRICITY":0.0001271,"INCLINATION":1.5217,"RA_OF_ASC_NODE":271.7198,"ARG_OF_PERICENTER":92.9063,"MEAN_ANOMALY":247.0425,"EPHEMERIS_TYPE":0,"CLASSIFICATION_TYPE":"U","NORAD_CAT_ID":60606,"ELEMENT_SET_NO":999,"REV_AT_EPOCH":594,"BSTAR":0,"MEAN_MOTION_DOT":-3.85e-6,"MEAN_MOTION_DDOT":0},{"OBJECT_NAME":"HULIANWAN GAOGUI-03 (HG-03)","OBJECT_ID":"2024-181A","EPOCH":"2026-03-27T00:46:08.810688","MEAN_MOTION":1.00268557,"ECCENTRICITY":5.122e-5,"INCLINATION":0.0142,"RA_OF_ASC_NODE":61.6092,"ARG_OF_PERICENTER":80.8292,"MEAN_ANOMALY":336.4433,"EPHEMERIS_TYPE":0,"CLASSIFICATION_TYPE":"U","NORAD_CAT_ID":61503,"ELEMENT_SET_NO":999,"REV_AT_EPOCH":600,"BSTAR":0,"MEAN_MOTION_DOT":0,"MEAN_MOTION_DDOT":0},{"OBJECT_NAME":"DSN-3 (KIRAMEKI-3)","OBJECT_ID":"2024-198A","EPOCH":"2026-03-28T08:37:25.820832","MEAN_MOTION":1.00270797,"ECCENTRICITY":0.00012862,"INCLINATION":0.0244,"RA_OF_ASC_NODE":103.821,"ARG_OF_PERICENTER":225.4455,"MEAN_ANOMALY":129.9097,"EPHEMERIS_TYPE":0,"CLASSIFICATION_TYPE":"U","NORAD_CAT_ID":61733,"ELEMENT_SET_NO":999,"REV_AT_EPOCH":511,"BSTAR":0,"MEAN_MOTION_DOT":-2.7e-6,"MEAN_MOTION_DDOT":0},{"OBJECT_NAME":"KOREASAT 6A","OBJECT_ID":"2024-206A","EPOCH":"2026-03-28T20:28:17.878944","MEAN_MOTION":1.00272369,"ECCENTRICITY":0.0001012,"INCLINATION":0.0108,"RA_OF_ASC_NODE":167.0367,"ARG_OF_PERICENTER":180.4179,"MEAN_ANOMALY":261.8868,"EPHEMERIS_TYPE":0,"CLASSIFICATION_TYPE":"U","NORAD_CAT_ID":61910,"ELEMENT_SET_NO":999,"REV_AT_EPOCH":503,"BSTAR":0,"MEAN_MOTION_DOT":-3.81e-6,"MEAN_MOTION_DDOT":0},{"OBJECT_NAME":"INTELSAT 33E DEB","OBJECT_ID":"2016-053L","EPOCH":"2026-03-28T07:48:00.027648","MEAN_MOTION":1.0049122,"ECCENTRICITY":0.0025367,"INCLINATION":1.3775,"RA_OF_ASC_NODE":86.6493,"ARG_OF_PERICENTER":210.798,"MEAN_ANOMALY":149.9632,"EPHEMERIS_TYPE":0,"CLASSIFICATION_TYPE":"U","NORAD_CAT_ID":61994,"ELEMENT_SET_NO":999,"REV_AT_EPOCH":528,"BSTAR":0,"MEAN_MOTION_DOT":-2.21e-6,"MEAN_MOTION_DDOT":0},{"OBJECT_NAME":"INTELSAT 33E DEB","OBJECT_ID":"2016-053Q","EPOCH":"2026-03-27T19:21:37.477728","MEAN_MOTION":1.00398836,"ECCENTRICITY":0.0029872,"INCLINATION":1.3493,"RA_OF_ASC_NODE":84.0848,"ARG_OF_PERICENTER":277.4921,"MEAN_ANOMALY":83.0444,"EPHEMERIS_TYPE":0,"CLASSIFICATION_TYPE":"U","NORAD_CAT_ID":61998,"ELEMENT_SET_NO":999,"REV_AT_EPOCH":528,"BSTAR":0,"MEAN_MOTION_DOT":-2.24e-6,"MEAN_MOTION_DDOT":0}]
